IRIDIUM 921             
1 24873U 97034E   24134.51723095  .00039916  00000+0  11000-2 0  9994
2 24873  86.3793 305.2584 0004320  47.6226 312.5391 15.36955380469856
IRIDIUM 26              
1 24903U 97043A   24134.49700396  .00001487  00000+0  50196-3 0  9996
2 24903  86.3926 278.3140 0002061  86.9904 273.1529 14.36341750399356
IRIDIUM 22              
1 24907U 97043E   24134.45612197  .00001556  00000+0  53729-3 0  9999
2 24907  86.3927 281.5428 0002149  92.6708 267.4735 14.35232259399424
DUMMY MASS 1            
1 24925U 97048A   24134.51846506  .00001188  00000+0  13219-3 0  9995
2 24925  86.3318 320.0190 0008910 114.5970 245.6184 14.86186165445754
DUMMY MASS 2            
1 24926U 97048B   24134.48211248  .00001240  00000+0  13889-3 0  9993
2 24926  86.3319 321.5729 0009483 124.1220 236.0905 14.85944842445535
IRIDIUM 29              
1 24944U 97051A   24134.46981982  .00001378  00000+0  47093-3 0  9990
2 24944  86.3921 311.4693 0002363  93.3520 266.7947 14.35681556395908
IRIDIUM 33              
1 24946U 97051C   24134.46405591  .00000983  00000+0  34312-3 0  9990
2 24946  86.3835 310.7252 0006207 314.2885  45.7801 14.34345886395431
IRIDIUM 28              
1 24948U 97051E   24134.49673047  .00001367  00000+0  45844-3 0  9997
2 24948  86.3925 309.2011 0001886  80.6081 279.5329 14.36632441396441
